$$SOE
2459580.500000000, A.D. 2022-Jan-01 00:00:00.0000, -8.031943119689687E+07, 2.791289938079924E+08, 1.634200536914214E+06,
2459587.500000000, A.D. 2022-Jan-08 00:00:00.0000, -9.176896307798450E+07, 2.730956439534990E+08, 7.097583752644867E+06,
2459594.500000000, A.D. 2022-Jan-15 00:00:00.0000, -1.030323498968049E+08, 2.665085394462352E+08, 1.254653172822960E+07,
2459601.500000000, A.D. 2022-Jan-22 00:00:00.0000, -1.140819339225054E+08, 2.593685810962041E+08, 1.796940821815732E+07,
2459608.500000000, A.D. 2022-Jan-29 00:00:00.0000, -1.248895339000611E+08, 2.516786332675098E+08, 2.335413523224011E+07,
2459615.500000000, A.D. 2022-Feb-05 00:00:00.0000, -1.354265952117573E+08, 2.434436504222917E+08, 2.868824044562970E+07,
2459622.500000000, A.D. 2022-Feb-12 00:00:00.0000, -1.456643571738340E+08, 2.346707900417250E+08, 3.395891376843470E+07,
2459629.500000000, A.D. 2022-Feb-19 00:00:00.0000, -1.555740379266817E+08, 2.253695106488258E+08, 3.915307343817404E+07,
2459636.500000000, A.D. 2022-Feb-26 00:00:00.0000, -1.651270366795752E+08, 2.155516504979495E+08, 4.425744149340354E+07,
2459643.500000000, A.D. 2022-Mar-05 00:00:00.0000, -1.742951509072447E+08, 2.052314826417277E+08, 4.925862806703058E+07,
2459650.500000000, A.D. 2022-Mar-12 00:00:00.0000, -1.830508053461460E+08, 1.944257428576115E+08, 5.414322365620856E+07,
2459657.500000000, A.D. 2022-Mar-19 00:00:00.0000, -1.913672891223755E+08, 1.831536274128101E+08, 5.889789821616648E+07,
2459664.500000000, A.D. 2022-Mar-26 00:00:00.0000, -1.992189967826713E+08, 1.714367581929078E+08, 6.350950560288636E+07,
2459671.500000000, A.D. 2022-Apr-02 00:00:00.0000, -2.065816684443226E+08, 1.592991134175327E+08, 6.796519158163339E+07,
2459678.500000000, A.D. 2022-Apr-09 00:00:00.0000, -2.134326237047633E+08, 1.467669231216669E+08, 7.225250334754400E+07,
2459685.500000000, A.D. 2022-Apr-16 00:00:00.0000, -2.197509836717885E+08, 1.338685302384706E+08, 7.635949835317990E+07,
2459692.500000000, A.D. 2022-Apr-23 00:00:00.0000, -2.255178771145051E+08, 1.206342196283361E+08, 8.027485030394787E+07,
2459699.500000000, A.D. 2022-Apr-30 00:00:00.0000, -2.307166275752764E+08, 1.070960151728893E+08, 8.398794994167419E+07,
2459706.500000000, A.D. 2022-May-07 00:00:00.0000, -2.353329137920306E+08, 9.328744639083898E+07, 8.748899787521937E+07,
2459713.500000000, A.D. 2022-May-14 00:00:00.0000, -2.393548980961444E+08, 7.924329198524067E+07, 9.076908743315905E+07,
2459720.500000000, A.D. 2022-May-21 00:00:00.0000, -2.427733217406414E+08, 6.499930624236070E+07, 9.382027590614116E+07,
2459727.500000000, A.D. 2022-May-28 00:00:00.0000, -2.455815655599242E+08, 5.059193310207868E+07, 9.663564262004301E+07,
2459734.500000000, A.D. 2022-Jun-04 00:00:00.0000, -2.477756746659158E+08, 3.605801372986960E+07, 9.920933266729926E+07,
2459741.500000000, A.D. 2022-Jun-11 00:00:00.0000, -2.493543471191040E+08, 2.143449383303832E+07, 1.015365856060633E+08,
2459748.500000000, A.D. 2022-Jun-18 00:00:00.0000, -2.503188876984600E+08, 6.758136821284939E+06, 1.036137489142345E+08,
2459755.500000000, A.D. 2022-Jun-25 00:00:00.0000, -2.506731288974874E+08, -7.934751526165456E+06, 1.054382764420139E+08,
2459762.500000000, A.D. 2022-Jul-02 00:00:00.0000, -2.504233220298496E+08, -2.260858185731550E+07, 1.070087125221678E+08,
2459769.500000000, A.D. 2022-Jul-09 00:00:00.0000, -2.495780017633849E+08, -3.722871900158758E+07, 1.083246627693406E+08,
2459776.500000000, A.D. 2022-Jul-16 00:00:00.0000, -2.481478283460943E+08, -5.176169415038544E+07, 1.093867530229466E+08,
2459783.500000000, A.D. 2022-Jul-23 00:00:00.0000, -2.461454142310631E+08, -6.617538888284811E+07, 1.101965782351522E+08,
2459790.500000000, A.D. 2022-Jul-30 00:00:00.0000, -2.435851396342975E+08, -8.043919284191272E+07, 1.107566427723307E+08,
2459797.500000000, A.D. 2022-Aug-06 00:00:00.0000, -2.404829579716537E+08, -9.452413377317733E+07, 1.110702936791792E+08,
2459804.500000000, A.D. 2022-Aug-13 00:00:00.0000, -2.368561963031982E+08, -1.084029773637237E+08, 1.111416490241632E+08,
2459811.500000000, A.D. 2022-Aug-20 00:00:00.0000, -2.327233562966857E+08, -1.220502983136368E+08, 1.109755231751013E+08,
2459818.500000000, A.D. 2022-Aug-27 00:00:00.0000, -2.281039191405669E+08, -1.354425249136202E+08, 1.105773505728624E+08,
2459825.500000000, A.D. 2022-Sep-03 00:00:00.0000, -2.230181571555267E+08, -1.485579592600317E+08, 1.099531094544089E+08,
2459832.500000000, A.D. 2022-Sep-10 00:00:00.0000, -2.174869544750030E+08, -1.613767754411354E+08, 1.091092468164424E+08,
2459839.500000000, A.D. 2022-Sep-17 00:00:00.0000, -2.115316386864475E+08, -1.738809982690892E+08, 1.080526057120192E+08,
2459846.500000000, A.D. 2022-Sep-24 00:00:00.0000, -2.051738247778128E+08, -1.860544652845292E+08, 1.067903557615252E+08,
2459853.500000000, A.D. 2022-Oct-01 00:00:00.0000, -1.984352720774841E+08, -1.978827747364530E+08, 1.053299275472146E+08,
2459860.500000000, A.D. 2022-Oct-08 00:00:00.0000, -1.913377542820620E+08, -2.093532216184642E+08, 1.036789514032368E+08,
2459867.500000000, A.D. 2022-Oct-15 00:00:00.0000, -1.839029436354173E+08, -2.204547230244208E+08, 1.018452011206298E+08,
2459874.500000000, A.D. 2022-Oct-22 00:00:00.0000, -1.761523112617466E+08, -2.311777367841718E+08, 9.983654281506796E+07,
2459881.500000000, A.D. 2022-Oct-29 00:00:00.0000, -1.681070407282715E+08, -2.415141780360002E+08, 9.766088857439682E+07,
2459888.500000000, A.D. 2022-Nov-05 00:00:00.0000, -1.597879521215373E+08, -2.514573328223711E+08, 9.532615486769979E+07,
2459895.500000000, A.D. 2022-Nov-12 00:00:00.0000, -1.512154378404980E+08, -2.610017690240643E+08, 9.284022585749073E+07,
2459902.500000000, A.D. 2022-Nov-19 00:00:00.0000, -1.424094099597256E+08, -2.701432469316807E+08, 9.021092138852477E+07,
2459909.500000000, A.D. 2022-Nov-26 00:00:00.0000, -1.333892579693228E+08, -2.788786309776884E+08, 8.744596933384623E+07,
2459916.500000000, A.D. 2022-Dec-03 00:00:00.0000, -1.241738157687800E+08, -2.872058035679925E+08, 8.455298199324003E+07,
2459923.500000000, A.D. 2022-Dec-10 00:00:00.0000, -1.147813369230707E+08, -2.951235817383863E+08, 8.153943624052377E+07,
2459930.500000000, A.D. 2022-Dec-17 00:00:00.0000, -1.052294772427517E+08, -3.026316372325819E+08, 7.841265710567412E+07,
2459937.500000000, A.D. 2022-Dec-24 00:00:00.0000, -9.553528370650752E+07, -3.097304204833079E+08, 7.517980446054205E+07,
2459944.500000000, A.D. 2022-Dec-31 00:00:00.0000, -8.571518854313335E+07, -3.164210886710148E+08, 7.184786246934187E+07,
2459951.500000000, A.D. 2023-Jan-07 00:00:00.0000, -7.578500757846662E+07, -3.227054370686601E+08, 6.842363156580451E+07,
2459958.500000000, A.D. 2023-Jan-14 00:00:00.0000, -6.575994410159207E+07, -3.285858332540947E+08, 6.491372288739505E+07,
2459965.500000000, A.D. 2023-Jan-21 00:00:00.0000, -5.565459824363178E+07, -3.340651573662373E+08, 6.132455469430660E+07,
2459972.500000000, A.D. 2023-Jan-28 00:00:00.0000, -4.548297761303323E+07, -3.391467485473722E+08, 5.766235017024648E+07,
2459979.500000000, A.D. 2023-Feb-04 00:00:00.0000, -3.525850887183367E+07, -3.438343544446905E+08, 5.393313664256272E+07,
2459986.500000000, A.D. 2023-Feb-11 00:00:00.0000, -2.499405158392219E+07, -3.481320838271295E+08, 5.014274616146328E+07,
2459993.500000000, A.D. 2023-Feb-18 00:00:00.0000, -1.470191398969320E+07, -3.520443629749489E+08, 4.629681718733890E+07,
2460000.500000000, A.D. 2023-Feb-25 00:00:00.0000, -4.393870086920058E+06, -3.555758958184842E+08, 4.240079717842422E+07,
2460007.500000000, A.D. 2023-Mar-04 00:00:00.0000, 5.918822395062425E+06, -3.587316276090700E+08, 3.845994591866568E+07,
2460014.500000000, A.D. 2023-Mar-11 00:00:00.0000, 1.622540342533676E+07, -3.615167119174134E+08, 3.447933944844252E+07,
2460021.500000000, A.D. 2023-Mar-18 00:00:00.0000, 2.651559178268650E+07, -3.639364808044012E+08, 3.046387447172765E+07,
2460028.500000000, A.D. 2023-Mar-25 00:00:00.0000, 3.677956624550349E+07, -3.659964180094103E+08, 2.641827311409290E+07,
2460035.500000000, A.D. 2023-Apr-01 00:00:00.0000, 4.700794744688551E+07, -3.677021345641156E+08, 2.234708793470082E+07,
2460042.500000000, A.D. 2023-Apr-08 00:00:00.0000, 5.719177991395161E+07, -3.690593454131280E+08, 1.825470727040261E+07,
2460049.500000000, A.D. 2023-Apr-15 00:00:00.0000, 6.732251206502838E+07, -3.700738479596782E+08, 1.414536096798973E+07,
2460056.500000000, A.D. 2023-Apr-22 00:00:00.0000, 7.739197606510164E+07, -3.707515054085318E+08, 1.002312603104910E+07,
2460063.500000000, A.D. 2023-Apr-29 00:00:00.0000, 8.739237034842643E+07, -3.710982324859198E+08, 5.891932065621793E+06,
2460070.500000000, A.D. 2023-May-06 00:00:00.0000, 9.731624310509107E+07, -3.711199815991910E+08, 1.755566790412560E+06,
2460077.500000000, A.D. 2023-May-13 00:00:00.0000, 1.071564757976164E+08, -3.708227301824753E+08, -2.382318406700999E+06,
2460084.500000000, A.D. 2023-May-20 00:00:00.0000, 1.169062669731352E+08, -3.702124695815516E+08, -6.518202956578642E+06,
2460091.500000000, A.D. 2023-May-27 00:00:00.0000, 1.265591165861602E+08, -3.692951953790847E+08, -1.064869168533817E+07,
2460098.500000000, A.D. 2023-Jun-03 00:00:00.0000, 1.361088109026636E+08, -3.680768990149358E+08, -1.477050950227585E+07,
2460105.500000000, A.D. 2023-Jun-10 00:00:00.0000, 1.455494080160392E+08, -3.665635606045418E+08, -1.888049621826252E+07,
2460112.500000000, A.D. 2023-Jun-17 00:00:00.0000, 1.548752240661975E+08, -3.647611429140828E+08, -2.297560152006388E+07,
2460119.500000000, A.D. 2023-Jun-24 00:00:00.0000, 1.640808204795457E+08, -3.626755863456123E+08, -2.705288013487881E+07,
2460126.500000000, A.D. 2023-Jul-01 00:00:00.0000, 1.731609924756699E+08, -3.603128040217586E+08, -3.110948714779001E+07,
2460133.500000000, A.D. 2023-Jul-08 00:00:00.0000, 1.821107571544973E+08, -3.576786760719233E+08, -3.514267325649554E+07,
2460140.500000000, A.D. 2023-Jul-15 00:00:00.0000, 1.909253398713674E+08, -3.547790458775902E+08, -3.914978008051482E+07,
2460147.500000000, A.D. 2023-Jul-22 00:00:00.0000, 1.996001624044453E+08, -3.516197192437059E+08, -4.312823593348727E+07,
$$EOE